{
  "type": "FeatureCollection",
  "features": [
    {
      "type": "Feature",
      "properties": {
        "norad_id": 66690,
        "name": "TRANSPORTER-15AA",
        "group": "last-30-days",
        "lat": -46.28211938657139,
        "lon": -115.78249490386374,
        "alt_km": 518.878603267086,
        "timestamp": "2025-12-26T13:39:17.664301+00:00",
        "meta_object_name": "TRANSPORTER-15AA",
        "meta_object_id": "2025-276AA",
        "meta_epoch": "2025-12-26T06:19:35.681952",
        "meta_mean_motion": 15.17102796,
        "meta_eccentricity": 0.00036848,
        "meta_inclination": 97.4387,
        "meta_ra_of_asc_node": 71.7711,
        "meta_arg_of_pericenter": 231.5482,
        "meta_mean_anomaly": 128.5421,
        "meta_ephemeris_type": 0,
        "meta_classification_type": "U",
        "meta_norad_cat_id": 66690,
        "meta_element_set_no": 999,
        "meta_rev_at_epoch": 417,
        "meta_bstar": 0.00045953175,
        "meta_mean_motion_dot": 9.046e-05,
        "meta_mean_motion_ddot": 0,
        "tle_line1": "1 66690U 25276AA  25360.26360743  .00009046  00000+0  45953-3 0  9993",
        "tle_line2": "2 66690  97.4387  71.7711 0003684 231.5482 128.5421 15.17102796  4171"
      },
      "geometry": {
        "type": "Point",
        "coordinates": [
          -115.78249490386374,
          -46.28211938657139
        ]
      }
    },
    {
      "type": "Feature",
      "properties": {
        "norad_id": 66691,
        "name": "TRANSPORTER-15AB",
        "group": "last-30-days",
        "lat": -60.25491496870139,
        "lon": -121.13671382449125,
        "alt_km": 518.3708342213331,
        "timestamp": "2025-12-26T13:39:17.664311+00:00",
        "meta_object_name": "TRANSPORTER-15AB",
        "meta_object_id": "2025-276AB",
        "meta_epoch": "2025-12-26T04:40:55.637760",
        "meta_mean_motion": 15.1736891,
        "meta_eccentricity": 0.00037841,
        "meta_inclination": 97.4412,
        "meta_ra_of_asc_node": 71.7179,
        "meta_arg_of_pericenter": 233.5315,
        "meta_mean_anomaly": 126.557,
        "meta_ephemeris_type": 0,
        "meta_classification_type": "U",
        "meta_norad_cat_id": 66691,
        "meta_element_set_no": 999,
        "meta_rev_at_epoch": 416,
        "meta_bstar": 0.00057033489,
        "meta_mean_motion_dot": 0.00011333,
        "meta_mean_motion_ddot": 0,
        "tle_line1": "1 66691U 25276AB  25360.19508840  .00011333  00000+0  57033-3 0  9992",
        "tle_line2": "2 66691  97.4412  71.7179 0003784 233.5315 126.5570 15.17368910  4161"
      },
      "geometry": {
        "type": "Point",
        "coordinates": [
          -121.13671382449125,
          -60.25491496870139
        ]
      }
    },
    {
      "type": "Feature",
      "properties": {
        "norad_id": 66692,
        "name": "TRANSPORTER-15AC",
        "group": "last-30-days",
        "lat": -77.03063550621414,
        "lon": -142.48067404711284,
        "alt_km": 519.7049879255455,
        "timestamp": "2025-12-26T13:39:17.664321+00:00",
        "meta_object_name": "TRANSPORTER-15AC",
        "meta_object_id": "2025-276AC",
        "meta_epoch": "2025-12-26T04:36:08.314560",
        "meta_mean_motion": 15.17447229,
        "meta_eccentricity": 0.00017803,
        "meta_inclination": 97.4413,
        "meta_ra_of_asc_node": 71.7258,
        "meta_arg_of_pericenter": 246.4774,
        "meta_mean_anomaly": 113.6272,
        "meta_ephemeris_type": 0,
        "meta_classification_type": "U",
        "meta_norad_cat_id": 66692,
        "meta_element_set_no": 999,
        "meta_rev_at_epoch": 416,
        "meta_bstar": 0.00030393663,
        "meta_mean_motion_dot": 6.017e-05,
        "meta_mean_motion_ddot": 0,
        "tle_line1": "1 66692U 25276AC  25360.19176290  .00006017  00000+0  30394-3 0  9997",
        "tle_line2": "2 66692  97.4413  71.7258 0001780 246.4774 113.6272 15.17447229  4164"
      },
      "geometry": {
        "type": "Point",
        "coordinates": [
          -142.48067404711284,
          -77.03063550621414
        ]
      }
    },
    {
      "type": "Feature",
      "properties": {
        "norad_id": 66693,
        "name": "TRANSPORTER-15AD",
        "group": "last-30-days",
        "lat": -79.16097604887072,
        "lon": -150.94020334412875,
        "alt_km": 517.8633063047482,
        "timestamp": "2025-12-26T13:39:17.664330+00:00",
        "meta_object_name": "TRANSPORTER-15AD",
        "meta_object_id": "2025-276AD",
        "meta_epoch": "2025-12-26T06:10:26.609952",
        "meta_mean_motion": 15.17714122,
        "meta_eccentricity": 0.00032262,
        "meta_inclination": 97.4367,
        "meta_ra_of_asc_node": 71.77,
        "meta_arg_of_pericenter": 258.9833,
        "meta_mean_anomaly": 101.1038,
        "meta_ephemeris_type": 0,
        "meta_classification_type": "U",
        "meta_norad_cat_id": 66693,
        "meta_element_set_no": 999,
        "meta_rev_at_epoch": 417,
        "meta_bstar": 0.0007483531,
        "meta_mean_motion_dot": 0.00015046,
        "meta_mean_motion_ddot": 0,
        "tle_line1": "1 66693U 25276AD  25360.25725243  .00015046  00000+0  74835-3 0  9993",
        "tle_line2": "2 66693  97.4367  71.7700 0003226 258.9833 101.1038 15.17714122  4178"
      },
      "geometry": {
        "type": "Point",
        "coordinates": [
          -150.94020334412875,
          -79.16097604887072
        ]
      }
    },
    {
      "type": "Feature",
      "properties": {
        "norad_id": 66694,
        "name": "YAM-9",
        "group": "last-30-days",
        "lat": -82.50173293637383,
        "lon": 155.3165246081899,
        "alt_km": 519.5807298512573,
        "timestamp": "2025-12-26T13:39:17.664340+00:00",
        "meta_object_name": "YAM-9",
        "meta_object_id": "2025-276AE",
        "meta_epoch": "2025-12-26T06:08:06.045792",
        "meta_mean_motion": 15.17620639,
        "meta_eccentricity": 0.00014604,
        "meta_inclination": 97.4413,
        "meta_ra_of_asc_node": 71.7885,
        "meta_arg_of_pericenter": 234.9682,
        "meta_mean_anomaly": 125.1415,
        "meta_ephemeris_type": 0,
        "meta_classification_type": "U",
        "meta_norad_cat_id": 66694,
        "meta_element_set_no": 999,
        "meta_rev_at_epoch": 417,
        "meta_bstar": 0.00050628216,
        "meta_mean_motion_dot": 0.00010122,
        "meta_mean_motion_ddot": 0,
        "tle_line1": "1 66694U 25276AE  25360.25562553  .00010122  00000+0  50628-3 0  9991",
        "tle_line2": "2 66694  97.4413  71.7885 0001460 234.9682 125.1415 15.17620639  4173"
      },
      "geometry": {
        "type": "Point",
        "coordinates": [
          155.3165246081899,
          -82.50173293637383
        ]
      }
    },
    {
      "type": "Feature",
      "properties": {
        "norad_id": 66695,
        "name": "IRIDE FM1",
        "group": "last-30-days",
        "lat": -22.136997755183078,
        "lon": 75.1672535927561,
        "alt_km": 517.0730233586382,
        "timestamp": "2025-12-26T13:39:17.664355+00:00",
        "meta_object_name": "IRIDE FM1",
        "meta_object_id": "2025-276AF",
        "meta_epoch": "2025-12-26T04:15:46.412064",
        "meta_mean_motion": 15.18318094,
        "meta_eccentricity": 0.00012847,
        "meta_inclination": 97.4385,
        "meta_ra_of_asc_node": 71.7357,
        "meta_arg_of_pericenter": 125.5692,
        "meta_mean_anomaly": 234.5662,
        "meta_ephemeris_type": 0,
        "meta_classification_type": "U",
        "meta_norad_cat_id": 66695,
        "meta_element_set_no": 999,
        "meta_rev_at_epoch": 416,
        "meta_bstar": 0.00088332893,
        "meta_mean_motion_dot": 0.00018088,
        "meta_mean_motion_ddot": 0,
        "tle_line1": "1 66695U 25276AF  25360.17762051  .00018088  00000+0  88333-3 0  9991",
        "tle_line2": "2 66695  97.4385  71.7357 0001284 125.5692 234.5662 15.18318094  4164"
      },
      "geometry": {
        "type": "Point",
        "coordinates": [
          75.1672535927561,
          -22.136997755183078
        ]
      }
    },
    {
      "type": "Feature",
      "properties": {
        "norad_id": 66696,
        "name": "IRIDE FM2",
        "group": "last-30-days",
        "lat": -73.75324213675033,
        "lon": -134.55655651771855,
        "alt_km": 519.1543879725305,
        "timestamp": "2025-12-26T13:39:17.664368+00:00",
        "meta_object_name": "IRIDE FM2",
        "meta_object_id": "2025-276AG",
        "meta_epoch": "2025-12-26T06:12:06.572160",
        "meta_mean_motion": 15.17458783,
        "meta_eccentricity": 0.00024662,
        "meta_inclination": 97.4383,
        "meta_ra_of_asc_node": 71.7749,
        "meta_arg_of_pericenter": 249.6402,
        "meta_mean_anomaly": 110.4567,
        "meta_ephemeris_type": 0,
        "meta_classification_type": "U",
        "meta_norad_cat_id": 66696,
        "meta_element_set_no": 999,
        "meta_rev_at_epoch": 417,
        "meta_bstar": 0.00034274955,
        "meta_mean_motion_dot": 6.797e-05,
        "meta_mean_motion_ddot": 0,
        "tle_line1": "1 66696U 25276AG  25360.25840940  .00006797  00000+0  34275-3 0  9995",
        "tle_line2": "2 66696  97.4383  71.7749 0002466 249.6402 110.4567 15.17458783  4174"
      },
      "geometry": {
        "type": "Point",
        "coordinates": [
          -134.55655651771855,
          -73.75324213675033
        ]
      }
    }
  ]
}